NORAD_CAT_ID,OBJECT_NAME,OBJECT_TYPE,EPOCH,MEAN_MOTION,ECCENTRICITY,INCLINATION,RA_OF_ASC_NODE,ARG_OF_PERICENTER,MEAN_ANOMALY,BSTAR,MEAN_MOTION_DOT,MEAN_MOTION_DDOT,TLE_LINE0,TLE_LINE1,TLE_LINE2,SEMIMAJOR_AXIS,PERIOD,APOGEE,PERIGEE,DECAYED
53038.0,STARLINK-4156,PAYLOAD,2022-11-26 12:41:27,15.08851832,0.0001724,53.2214,57.3583,48.7352,311.3788,0.00015367,2.159e-05,0.0,0 STARLINK-4156,1 53038U 22076BE  22330.52879443  .00002159  00000-0  15367-3 0  9990,2 53038  53.2214  57.3583 0001724  48.7352 311.3788 15.08851832 22097,6917.844,95.437,540.9019999999998,538.5169999999998,0.0
53038.0,STARLINK-4156,PAYLOAD,2022-11-26 15:52:13,15.08856501,0.0001737,53.2213,56.7635,47.537,312.5768,0.0001419,1.972e-05,0.0,0 STARLINK-4156,1 53038U 22076BE  22330.66127067  .00001972  00000-0  14190-3 0  9998,2 53038  53.2213  56.7635 0001737  47.5370 312.5768 15.08856501 22570,6917.83,95.437,540.8969999999998,538.493,0.0
53038.0,STARLINK-4156,PAYLOAD,2022-11-27 12:32:13,15.08859038,0.0001753,53.2211,52.8976,46.313,313.8007,0.00013295,1.83e-05,0.0,0 STARLINK-4156,1 53038U 22076BE  22331.52237823  .00001830  00000-0  13295-3 0  9994,2 53038  53.2211  52.8976 0001753  46.3130 313.8007 15.08859038 22244,6917.821999999999,95.436,540.9,538.475,0.0
53038.0,STARLINK-4156,PAYLOAD,2022-11-27 17:18:24,15.0883388,0.0001828,53.2206,52.0061,46.8741,313.2404,-0.00017208,-3.025e-05,0.0,0 STARLINK-4156,1 53038U 22076BE  22331.72111863 -.00003025  00000-0 -17208-3 0  9999,2 53038  53.2206  52.0061 0001828  46.8741 313.2404 15.08833880 22276,6917.899,95.438,541.029,538.5,0.0
53038.0,STARLINK-4156,PAYLOAD,2022-11-27 22:04:34,15.08831039,0.0001798,53.2214,51.1138,46.8299,313.2843,-0.00010877,-2.018e-05,0.0,0 STARLINK-4156,1 53038U 22076BE  22331.91984785 -.00002018  00000-0 -10877-3 0  9997,2 53038  53.2214  51.1138 0001798  46.8299 313.2843 15.08831039 22769,6917.908,95.438,541.0169999999998,538.529,0.0
53038.0,STARLINK-4156,PAYLOAD,2022-11-28 06:01:30,15.08838331,0.0001733,53.2224,49.6256,59.8966,300.2198,-9.5895e-05,-1.814e-05,0.0,0 STARLINK-4156,1 53038U 22076BE  22332.25104313 -.00001814  00000-0 -95895-4 0  9993,2 53038  53.2224  49.6256 0001733  59.8966 300.2198 15.08838331 22814,6917.885,95.438,540.9490000000002,538.552,0.0
53038.0,STARLINK-4156,PAYLOAD,2022-11-28 10:47:39,15.08838624,0.000182,53.2213,48.7346,48.1719,311.9429,-4.1328e-05,-9.46e-06,0.0,0 STARLINK-4156,1 53038U 22076BE  22332.44976239 -.00000946  00000-0 -41328-4 0  9995,2 53038  53.2213  48.7346 0001820  48.1719 311.9429 15.08838624 22389,6917.885,95.438,541.009,538.491,0.0
53038.0,STARLINK-4156,PAYLOAD,2022-11-28 21:55:22,15.08830593,0.000208,53.223,46.6527,46.3039,313.8125,-0.00010924,-2.026e-05,0.0,0 STARLINK-4156,1 53038U 22076BE  22332.91345088 -.00002026  00000-0 -10924-3 0  9997,2 53038  53.2230  46.6527 0002080  46.3039 313.8125 15.08830593 22910,6917.909000000002,95.438,541.2130000000002,538.335,0.0
53038.0,STARLINK-4156,PAYLOAD,2022-11-29 15:24:36,15.08837581,0.0001773,53.2226,43.3779,61.2635,298.8535,4.3472e-05,4.04e-06,0.0,0 STARLINK-4156,1 53038U 22076BE  22333.64208601  .00000404  00000-0  43472-4 0  9998,2 53038  53.2226  43.3779 0001773  61.2635 298.8535 15.08837581 23028,6917.888000000001,95.438,540.979,538.526,0.0
53038.0,STARLINK-4156,PAYLOAD,2022-11-30 13:40:00,15.08836926,0.0001781,53.2213,39.221,51.0755,309.0395,8.8153e-05,1.115e-05,0.0,0 STARLINK-4156,1 53038U 22076BE  22334.56945131  .00001115  00000-0  88153-4 0  9991,2 53038  53.2213  39.2210 0001781  51.0755 309.0395 15.08836926 22702,6917.89,95.438,540.987,538.523,0.0
53038.0,STARLINK-4156,PAYLOAD,2022-11-30 21:36:55,15.08853999,0.0001725,53.2217,37.7343,45.7564,314.357,1.9966e-05,3e-07,0.0,0 STARLINK-4156,1 53038U 22076BE  22334.90064103  .00000030  00000-0  19966-4 0  9991,2 53038  53.2217  37.7343 0001725  45.7564 314.3570 15.08853999 23212,6917.8380000000025,95.437,540.896,538.509,0.0
53038.0,STARLINK-4156,PAYLOAD,2022-12-01 13:30:47,15.08845323,0.0001987,53.2222,34.7611,44.4863,315.6289,0.00010116,1.322e-05,0.0,0 STARLINK-4156,1 53038U 22076BE  22335.56304760  .00001322  00000-0  10116-3 0  9992,2 53038  53.2222  34.7611 0001987  44.4863 315.6289 15.08845323 22853,6917.864000000001,95.437,541.104,538.355,0.0
53038.0,STARLINK-4156,PAYLOAD,2022-12-01 16:41:33,15.08848582,0.0001913,53.2218,34.1658,44.7497,315.3649,0.00012302,1.671e-05,0.0,0 STARLINK-4156,1 53038U 22076BE  22335.69552432  .00001671  00000-0  12302-3 0  9993,2 53038  53.2218  34.1658 0001913  44.7497 315.3649 15.08848582 23339,6917.854,95.437,541.043,538.396,0.0
53038.0,STARLINK-4156,PAYLOAD,2022-12-02 10:10:47,15.08845102,0.0001918,53.2221,30.8955,47.0409,313.0744,9.8415e-05,1.279e-05,0.0,0 STARLINK-4156,1 53038U 22076BE  22336.42416461  .00001279  00000-0  98415-4 0  9990,2 53038  53.2221  30.8955 0001918  47.0409 313.0744 15.08845102 23448,6917.865,95.437,541.057,538.403,0.0
53038.0,STARLINK-4156,PAYLOAD,2022-12-02 21:18:30,15.0883681,0.0001899,53.222,28.8138,45.0316,315.083,4.5228e-05,4.32e-06,0.0,0 STARLINK-4156,1 53038U 22076BE  22336.88785017  .00000432  00000-0  45228-4 0  9990,2 53038  53.2220  28.8138 0001899  45.0316 315.0830 15.08836810 23512,6917.89,95.438,541.069,538.441,0.0
53038.0,STARLINK-4156,PAYLOAD,2022-12-03 10:01:35,15.08834226,0.0001983,53.2215,26.4366,43.6393,316.4755,-2.6453e-05,-7.09e-06,0.0,0 STARLINK-4156,1 53038U 22076BE  22337.41777308 -.00000709  00000-0 -26453-4 0  9992,2 53038  53.2215  26.4366 0001983  43.6393 316.4755 15.08834226 23134,6917.898,95.438,541.135,538.391,0.0
53038.0,STARLINK-4156,PAYLOAD,2022-12-03 14:47:45,15.08832517,0.0001992,53.2211,25.5446,43.7933,316.3217,1.089e-05,-1.15e-06,0.0,0 STARLINK-4156,1 53038U 22076BE  22337.61649331 -.00000115  00000-0  10890-4 0  9996,2 53038  53.2211  25.5446 0001992  43.7933 316.3217 15.08832517 23166,6917.903,95.438,541.146,538.39,0.0
53038.0,STARLINK-4156,PAYLOAD,2022-12-04 03:30:49,15.0884774,0.0002056,53.2211,23.1668,34.026,326.0864,-5.9405e-05,-1.234e-05,0.0,0 STARLINK-4156,1 53038U 22076BE  22338.14640456 -.00001234  00000-0 -59405-4 0  9993,2 53038  53.2211  23.1668 0002056  34.0260 326.0864 15.08847740 23704,6917.857,95.437,541.144,538.299,0.0
53038.0,STARLINK-4156,PAYLOAD,2022-12-04 09:52:21,15.08843537,0.0002027,53.2213,21.976,42.7878,317.3271,0.00014493,2.019e-05,0.0,0 STARLINK-4156,1 53038U 22076BE  22338.41136118  .00002019  00000-0  14493-3 0  9995,2 53038  53.2213  21.9760 0002027  42.7878 317.3271 15.08843537 23282,6917.87,95.437,541.137,538.332,0.0
53038.0,STARLINK-4156,PAYLOAD,2022-12-04 14:38:31,15.08835366,0.0002386,53.2214,21.0847,39.2112,320.9052,6.3447e-05,7.21e-06,0.0,0 STARLINK-4156,1 53038U 22076BE  22338.61009013  .00000721  00000-0  63447-4 0  9992,2 53038  53.2214  21.0847 0002386  39.2112 320.9052 15.08835366 23772,6917.895,95.438,541.41,538.109,0.0
53038.0,STARLINK-4156,PAYLOAD,2022-12-05 09:43:09,15.08836042,0.0001954,53.2211,17.5156,40.8124,319.3014,7.6042e-05,9.22e-06,0.0,0 STARLINK-4156,1 53038U 22076BE  22339.40496972  .00000922  00000-0  76042-4 0  9992,2 53038  53.2211  17.5156 0001954  40.8124 319.3014 15.08836042 23438,6917.892,95.438,541.109,538.406,0.0
53038.0,STARLINK-4156,PAYLOAD,2022-12-05 19:15:27,15.08842927,0.000204,53.2217,15.731,43.0322,317.0829,0.00012235,1.66e-05,0.0,0 STARLINK-4156,1 53038U 22076BE  22339.80240435  .00001660  00000-0  12235-3 0  9990,2 53038  53.2217  15.7310 0002040  43.0322 317.0829 15.08842927 23953,6917.871,95.437,541.148,538.325,0.0
53038.0,STARLINK-4156,PAYLOAD,2022-12-06 09:33:55,15.08849459,0.0002072,53.2221,13.0536,46.2009,313.9154,3.6725e-05,2.96e-06,0.0,0 STARLINK-4156,1 53038U 22076BE  22340.39856112  .00000296  00000-0  36725-4 0  9996,2 53038  53.2221  13.0536 0002072  46.2009 313.9154 15.08849459 23583,6917.851,95.437,541.15,538.283,0.0
53038.0,STARLINK-4156,PAYLOAD,2022-12-06 19:06:15,15.0883961,0.0001931,53.2199,11.2697,42.9335,317.1808,-7.0402e-05,-1.408e-05,0.0,0 STARLINK-4156,1 53038U 22076BE  22340.79600931 -.00001408  00000-0 -70402-4 0  9994,2 53038  53.2199  11.2697 0001931  42.9335 317.1808 15.08839610 23640,6917.882,95.438,541.082,538.411,0.0
53038.0,STARLINK-4156,PAYLOAD,2022-12-07 18:57:02,15.08843455,0.0002103,53.2198,6.8094,42.8364,317.2792,1.9576e-05,2.3e-07,0.0,0 STARLINK-4156,1 53038U 22076BE  22341.78960712  .00000023  00000-0  19576-4 0  9995,2 53038  53.2198   6.8094 0002103  42.8364 317.2792 15.08843455 23794,6917.87,95.437,541.19,538.28,0.0
53038.0,STARLINK-4156,PAYLOAD,2022-12-08 02:53:57,15.08845663,0.0002118,53.2196,5.3227,43.2477,316.8681,2.2736e-05,7.4e-07,0.0,0 STARLINK-4156,1 53038U 22076BE  22342.12080497  .00000074  00000-0  22736-4 0  9995,2 53038  53.2196   5.3227 0002118  43.2477 316.8681 15.08845663 24303,6917.863,95.437,541.193,538.263,0.0
53038.0,STARLINK-4156,PAYLOAD,2022-12-08 18:47:48,15.08845915,0.000214,53.2198,2.3493,42.7593,317.3565,0.00018308,2.627e-05,0.0,0 STARLINK-4156,1 53038U 22076BE  22342.78319954  .00002627  00000-0  18308-3 0  9995,2 53038  53.2198   2.3493 0002140  42.7593 317.3565 15.08845915 23941,6917.861999999999,95.437,541.2080000000002,538.247,0.0
53038.0,STARLINK-4156,PAYLOAD,2022-12-09 07:30:53,15.08849529,0.0001979,53.2201,359.9717,41.654,318.4602,0.0001372,1.897e-05,0.0,0 STARLINK-4156,1 53038U 22076BE  22343.31311593  .00001897  00000-0  13720-3 0  9997,2 53038  53.2201 359.9717 0001979  41.6540 318.4602 15.08849529 24484,6917.851,95.437,541.085,538.347,0.0
53038.0,STARLINK-4156,PAYLOAD,2022-12-09 18:38:29,15.08908805,0.0005719,53.2194,357.8899,280.0249,80.0098,0.00064621,0.00010032,0.0,0 STARLINK-4156,1 53038U 22076BE  22343.77672583  .00010032  00000-0  64621-3 0  9993,2 53038  53.2194 357.8899 0005719 280.0249  80.0098 15.08908805 24556,6917.67,95.433,543.491,535.5790000000002,0.0
